Company Name,Country,Address,Phone and Fax,Contact Person,Title,Email,Phone,Website,Linkedin,Facebook,Twitter,Description
Federal Distributors Inc, United States,,,,,,,,,,,"Federal Distributors, Inc. is a beer and non-alcoholic beverage distributor committed to providing the best service possible."
Fairn Et Swanson Inc, United States,,,,,,,,,,,"Fairn & Swanson Inc. has forged a path in the travel retail industry, since the company began supplying duty-free products to ships. From those early days, providing vessels in the Port of San Francisco, to its current position as a premier duty-free wholesaler and retailer in North America, F&S has been a leader in the travel retail industry. Since long before the term ""travel retail"" was coined, F&S has supplied travelers with high quality branded products."
Fairest Cape Fine Wine Negociants, United States,,,,,,,,,,,"Fairest Cape was founded in 1995 by Peter Koff MW, one of only two people in the world to hold both the titles of Master of Wine and Cape Wine Master, a South African distinction. Our corporate office is located in Southern California and we distribute high quality, interesting and compelling wine from all over the world."
Fabiano Brothers Inc, United States,,,,,,,,,,,Fabiano Brothers is a premier beverage distributor providing licensed accounts beverages throughout Michigan as well as central Wisconsin.
Exceptional Wines, United States,,,,,,,,,,,"We only include exceptional wines in our catalog; we tasted them and have a first hand knowledge of the producer and its process.  We took our selection based on our personal opinion and first-palate tasting. We took in consideration the awards, honors, and medals won in the country of production. We completely ignore the numerical scores of wines and favorable articles published outside the country of production, since they only consider some of the wines that are actually imported to the specific country."
Eurowineclub.com Inc, United States,,,,,,,,,,,"EuroWineClub.com begins where ""America"" began: Plymouth, Massachusetts, home to the Club's Head Office and is part of Plymouth Wine Cellar Inc., a licensed package store specializing in offering specialty boutique and hard to find wines from Europe in full respect of the regulations of three-tier system in force in the state of Massachusetts. A great location and where America's ancestors landed after crossing Europe in search of a better life.,
 "
"Eurobubblies, Inc", United States,,,,,,,,,,,"Eurobubblies, Inc. is a Specialty Beverages Importer bringing French Culture and Prestige to the world market. Founded in 1992, Eurobubblies, Inc. offers a wide range of Artisanal French Sparkling Lemonades produced in Alsace, France with Natural Spring Water and packed in a very attractive Embossed Glass Bottle with a Traditional Swing Top."
Esber Beverage , United States,,,,,,,,,,,"Today, Esber Beverage operates statewide and runs an imports division, bringing top-quality products from around the world to the United States. While we've grown since our early days, our commitment has always been to personal service and the ability to reach an Esber.  Siblings Corinne, Gary, and Dave, as well as their children, continue this tradition today. "
Eric Solomon Selections - European Cellars, United States,,,,,,,,,,,"Importer of wine from France, Spain Switzerland & Macedonia."
Epicurean Wine's, United States,,,,,,,,,,,"Epicurean Wines aims to lead a shift that is happening at the smaller end of the Australian wine industry. While ripeness is a distinct characteristic of warm climate wines, many producers are striving to keep it in balance, producing seriously ambitious wines. These are the wines we import, love and sell."
Company Name,Country,Address,Phone and Fax,Contact Person,Title,Email,Phone,Website,Linkedin,Facebook,Twitter,Description
P. Comms Wines Importers, United States,,,,,,,,,,,"Steve does not work through agents. He deals personally with his winemaker friends. Wine comes directly from the private cellars of the winemakers to Steve’s climate-controlled warehouse in NC. Steve eliminates all the other middlemen. Therefore, people buy these quality wines at lower prices"
Federal Distributors Inc, United States,,,,,,,,,,,"Federal Distributors, Inc. is a beer and non-alcoholic beverage distributor committed to providing the best service possible."
Mionetto USA, United States,,,,,,,,,,,Mionetto USA has grown to become the importer for one of the leading prosecco brands and ranks among the fastest growing premier wine importing companies in the United States.
Faropian Wine Corp., United States,,,,,,,,,,,"Faropian offers foreign and domestic suppliers of all sizes, the most cost effective and efficient approach to conducting business in the U.S. Beverage Alcohol Market. We are spearheading the notion within the beverage industry that brands should not be devoured and ignored by large/insatiable companies. At Faropian, all brands have the freedom to maneuver while utilizing our transportation and compliance assets."
"Fantis Foods, Inc.", United States,,,,,,,,,,,"Fantis Foods Inc. is a Greek specialty food importer headquartered in Carlstadt, New Jersey, with locations in the Mid-West, West Coast, South-East, and Canada."
Fairn Et Swanson Inc, United States,,,,,,,,,,,"Fairn & Swanson Inc. has forged a path in the travel retail industry, since the company began supplying duty-free products to ships. From those early days, providing vessels in the Port of San Francisco, to its current position as a premier duty-free wholesaler and retailer in North America, F&S has been a leader in the travel retail industry. Since long before the term ""travel retail"" was coined, F&S has supplied travelers with high quality branded products."
Fairest Cape Fine Wine Negociants, United States,,,,,,,,,,,"Fairest Cape was founded in 1995 by Peter Koff MW, one of only two people in the world to hold both the titles of Master of Wine and Cape Wine Master, a South African distinction. Our corporate office is located in Southern California and we distribute high quality, interesting and compelling wine from all over the world."
Fabiano Brothers Inc, United States,,,,,,,,,,,Fabiano Brothers is a premier beverage distributor providing licensed accounts beverages throughout Michigan as well as central Wisconsin.
"Exclusive Imports, Inc.", United States,,,,,,,,,,,"We are so excited to celebrate our 30 years of importing fine wines from France throughout the west coast! Exclusive Imports has always valued the personal relationship we form with each winemaker as they have also become our lasting friends. But with our eyes on the future of viniculture, the launching of our site is the beginning of something new. We are incredibly enthusiastic to showcase the brands we are proud to represent as we extend ourselves to the World Wide Web and you."
Exceptional Wines, United States,,,,,,,,,,,"We only include exceptional wines in our catalog; we tasted them and have a first hand knowledge of the producer and its process.  We took our selection based on our personal opinion and first-palate tasting. We took in consideration the awards, honors, and medals won in the country of production. We completely ignore the numerical scores of wines and favorable articles published outside the country of production, since they only consider some of the wines that are actually imported to the specific country."
